{
    "type": "FeatureCollection",
    "name": "parcs_TR",
    "crs": { "type": "name", "properties": { "name": "urn:ogc:def:crs:EPSG::3857" } },
    "features": [
      {
        "type": "Feature",
        "properties": {
          "g_objectid": 828,
          "g_uid": "C11D8F3A-2CDE-4466-B8F6-BBC807C22BAD",
          "g_name": "Parc Champlain",
          "g_municipa": "TROIS-RIVIÈRES",
          "g_prov": "QC",
          "g_class": "HISTORIC SITE/POINT OF INTEREST",
          "g_longitud": -72.539442,
          "g_latitude": 46.34279397,
          "g_elevatio": 12.001,
          "g_accuracy": 25,
          "g_acq_tech": -1,
          "g_dat_acqu": "2021-11-12T00:00:00",
          "g_dat_char": "2021-11-18T00:00:00",
          "g_oid": 828,
          "image": "parc1.png"
        },
        "geometry": {
          "type": "Point",
          "coordinates": [ -8075053.745868195, 5835453.398081061 ]
        }
      },
      {
        "type": "Feature",
        "properties": {
          "g_objectid": 1064,
          "g_uid": "F6C8E072-76F3-42D6-A425-30539F848058",
          "g_name": "Les vieilles Forges",
          "g_municipa": "TROIS-RIVIÈRES",
          "g_prov": "QC",
          "g_class": "HISTORIC SITE/POINT OF INTEREST",
          "g_longitud": -72.65888712,
          "g_latitude": 46.39687398,
          "g_elevatio": 34.838,
          "g_accuracy": 25,
          "g_acq_tech": -1,
          "g_dat_acqu": "2021-11-12T00:00:00",
          "g_dat_char": "2021-11-18T00:00:00",
          "g_oid": 1064,
          "image": "parc2.png"
        },
        "geometry": {
          "type": "Point",
          "coordinates": [ -8088350.315804333, 5844178.258357489 ]
        }
      },
      {
        "type": "Feature",
        "properties": {
          "g_objectid": 1121,
          "g_uid": "014DF760-8FF8-421D-9287-1B940784DF9E",
          "g_name": "Parc Martin-Bergeron",
          "g_municipa": "TROIS-RIVIÈRES",
          "g_prov": "QC",
          "g_class": "SWIMMING POOL (OUTDOOR)",
          "g_longitud": -72.52438896,
          "g_latitude": 46.37395998,
          "g_elevatio": 32.004,
          "g_accuracy": 25,
          "g_acq_tech": -1,
          "g_dat_acqu": "2021-11-12T00:00:00",
          "g_dat_char": "2021-11-18T00:00:00",
          "g_oid": 1121,
          "image": "parc3.png"
        },
        "geometry": {
          "type": "Point",
          "coordinates": [ -8073378.049120506, 5840480.431928013 ]
        }
      },
      {
        "type": "Feature",
        "properties": {
          "g_objectid": 1190,
          "g_uid": "37E0E133-3CDC-4C39-8156-2FF780D3115B",
          "g_name": "Club du golf Metabéroutin",
          "g_municipa": "TROIS-RIVIÈRES",
          "g_prov": "QC",
          "g_class": "SWIMMING POOL (OUTDOOR)",
          "g_longitud": -72.54423612,
          "g_latitude": 46.36515402,
          "g_elevatio": 8.203,
          "g_accuracy": 25,
          "g_acq_tech": -1,
          "g_dat_acqu": "2021-11-12T00:00:00",
          "g_dat_char": "2021-11-18T00:00:00",
          "g_oid": 1190,
          "image": "parc4.png"
        },
        "geometry": {
          "type": "Point",
          "coordinates": [ -8075587.424865397, 5839059.752233081 ]
        }
      },
      {
        "type": "Feature",
        "properties": {
          "g_objectid": 1394,
          "g_uid": "CD6D904D-4778-49B0-A03E-EA47A4F9FC54",
          "g_name": "Parc Anjou",
          "g_municipa": "TROIS-RIVIÈRES",
          "g_prov": "QC",
          "g_class": "SWIMMING POOL (OUTDOOR)",
          "g_longitud": -72.59291784,
          "g_latitude": 46.33779402,
          "g_elevatio": 22.38,
          "g_accuracy": 25,
          "g_acq_tech": -1,
          "g_dat_acqu": "2021-11-12T00:00:00",
          "g_dat_char": "2021-11-18T00:00:00",
          "g_oid": 1394,
          "image": "parc5.png"
        },
        "geometry": {
          "type": "Point",
          "coordinates": [ -8081006.649146736, 5834647.179935065 ]
        }
      },
      {
        "type": "Feature",
        "properties": {
          "g_objectid": 1416,
          "g_uid": "D90407A8-F053-4E11-ADB8-5689FD3B814C",
          "g_name": "Parc Pie-XII",
          "g_municipa": "TROIS-RIVIÈRES",
          "g_prov": "QC",
          "g_class": "SWIMMING POOL (OUTDOOR)",
          "g_longitud": -72.55417392,
          "g_latitude": 46.33474896,
          "g_elevatio": 6.003,
          "g_accuracy": 25,
          "g_acq_tech": -1,
          "g_dat_acqu": "2021-11-12T00:00:00",
          "g_dat_char": "2021-11-18T00:00:00",
          "g_oid": 1416,
          "image": "parc6.png"
        },
        "geometry": {
          "type": "Point",
          "coordinates": [ -8076693.695701, 5834156.214618873 ]
        }
      }
    ]
  }