{
  "type": "FeatureCollection",
  "generator": "overpass-turbo",
  "copyright": "The data included in this document is from www.openstreetmap.org. The data is made available under ODbL.",
  "timestamp": "2025-03-31T16:35:25Z",
  "features": [
    {
      "type": "Feature",
      "properties": {
        "@id": "node/801622951",
        "amenity": "bicycle_parking"
      },
      "geometry": {
        "type": "Point",
        "coordinates": [
          -72.517975,
          46.3628518
        ]
      },
      "id": "node/801622951"
    },
    {
      "type": "Feature",
      "properties": {
        "@id": "node/807441274",
        "amenity": "bicycle_parking"
      },
      "geometry": {
        "type": "Point",
        "coordinates": [
          -72.539893,
          46.3453138
        ]
      },
      "id": "node/807441274"
    },
    {
      "type": "Feature",
      "properties": {
        "@id": "node/807441283",
        "amenity": "bicycle_parking"
      },
      "geometry": {
        "type": "Point",
        "coordinates": [
          -72.5403697,
          46.3447403
        ]
      },
      "id": "node/807441283"
    },
    {
      "type": "Feature",
      "properties": {
        "@id": "node/807441309",
        "amenity": "bicycle_parking"
      },
      "geometry": {
        "type": "Point",
        "coordinates": [
          -72.5580386,
          46.3734283
        ]
      },
      "id": "node/807441309"
    },
    {
      "type": "Feature",
      "properties": {
        "@id": "node/807441335",
        "access": "yes",
        "addr:street": "Place de l'Hôtel de ville",
        "amenity": "bicycle_parking",
        "bicycle_parking": "anchors",
        "capacity": "12",
        "capacity:cargo_bike": "0",
        "check_date": "2024-11-11",
        "covered": "no",
        "fee": "no",
        "lit": "yes",
        "operator": "Municipalité de Trois-Rivières",
        "smoothness": "excellent",
        "supervised": "no",
        "surface": "paving_stones"
      },
      "geometry": {
        "type": "Point",
        "coordinates": [
          -72.5431309,
          46.3428718
        ]
      },
      "id": "node/807441335"
    },
    {
      "type": "Feature",
      "properties": {
        "@id": "node/807441350",
        "amenity": "bicycle_parking"
      },
      "geometry": {
        "type": "Point",
        "coordinates": [
          -72.5371198,
          46.3423415
        ]
      },
      "id": "node/807441350"
    },
    {
      "type": "Feature",
      "properties": {
        "@id": "node/809426224",
        "addr:street": "Place de l'Hôtel de ville",
        "amenity": "bicycle_parking",
        "bicycle_parking": "anchors",
        "check_date": "2024-06-21"
      },
      "geometry": {
        "type": "Point",
        "coordinates": [
          -72.5428509,
          46.3425614
        ]
      },
      "id": "node/809426224"
    },
    {
      "type": "Feature",
      "properties": {
        "@id": "node/812631543",
        "amenity": "bicycle_parking"
      },
      "geometry": {
        "type": "Point",
        "coordinates": [
          -72.5588214,
          46.3726184
        ]
      },
      "id": "node/812631543"
    },
    {
      "type": "Feature",
      "properties": {
        "@id": "node/812631548",
        "amenity": "bicycle_parking"
      },
      "geometry": {
        "type": "Point",
        "coordinates": [
          -72.5575231,
          46.3737131
        ]
      },
      "id": "node/812631548"
    },
    {
      "type": "Feature",
      "properties": {
        "@id": "node/812631559",
        "amenity": "bicycle_parking"
      },
      "geometry": {
        "type": "Point",
        "coordinates": [
          -72.5388556,
          46.344189
        ]
      },
      "id": "node/812631559"
    },
    {
      "type": "Feature",
      "properties": {
        "@id": "node/814449124",
        "amenity": "bicycle_parking"
      },
      "geometry": {
        "type": "Point",
        "coordinates": [
          -72.4982801,
          46.3681193
        ]
      },
      "id": "node/814449124"
    },
    {
      "type": "Feature",
      "properties": {
        "@id": "node/846540190",
        "amenity": "bicycle_parking"
      },
      "geometry": {
        "type": "Point",
        "coordinates": [
          -72.5596645,
          46.3714816
        ]
      },
      "id": "node/846540190"
    },
    {
      "type": "Feature",
      "properties": {
        "@id": "node/4953708422",
        "amenity": "bicycle_rental",
        "bicycle_rental": "shop",
        "opening_hours": "Mo-Su 08:00-12:30, 18:00-18:00",
        "operator": "Rodolphe scooter",
        "shop": "rental"
      },
      "geometry": {
        "type": "Point",
        "coordinates": [
          -61.5828863,
          15.8667826
        ]
      },
      "id": "node/4953708422"
    },
    {
      "type": "Feature",
      "properties": {
        "@id": "node/5007369189",
        "amenity": "bicycle_parking"
      },
      "geometry": {
        "type": "Point",
        "coordinates": [
          -72.448872,
          46.3962105
        ]
      },
      "id": "node/5007369189"
    },
    {
      "type": "Feature",
      "properties": {
        "@id": "node/5016300724",
        "amenity": "bicycle_repair_station",
        "name": "Borne de réparation vélo"
      },
      "geometry": {
        "type": "Point",
        "coordinates": [
          -72.5375367,
          46.354113
        ]
      },
      "id": "node/5016300724"
    },
    {
      "type": "Feature",
      "properties": {
        "@id": "node/6744800809",
        "amenity": "bicycle_repair_station"
      },
      "geometry": {
        "type": "Point",
        "coordinates": [
          -72.6039972,
          46.4232384
        ]
      },
      "id": "node/6744800809"
    },
    {
      "type": "Feature",
      "properties": {
        "@id": "node/9489785133",
        "amenity": "bicycle_rental",
        "mobile": "+590 690 700 521",
        "name": "Savana",
        "website": "https://savanalocationtdh.com/"
      },
      "geometry": {
        "type": "Point",
        "coordinates": [
          -61.6443347,
          15.9683781
        ]
      },
      "id": "node/9489785133"
    },
    {
      "type": "Feature",
      "properties": {
        "@id": "node/9644226477",
        "amenity": "bicycle_rental",
        "bicycle_rental": "shop",
        "description": "Location de velos electriques, kayaks transparentes.",
        "ele": "0",
        "fee": "yes",
        "level": "0",
        "name": "Clear Blue Caraibes",
        "operator": "Jean-Yves et Carol",
        "payment:cash": "yes",
        "payment:credit_cards": "yes",
        "phone": "+590 690 65 79 81",
        "shop": "rental",
        "website": "https://clearbluecaraibes.fun/"
      },
      "geometry": {
        "type": "Point",
        "coordinates": [
          -61.5819322,
          15.8694692
        ]
      },
      "id": "node/9644226477"
    },
    {
      "type": "Feature",
      "properties": {
        "@id": "node/10764638483",
        "amenity": "bicycle_parking",
        "bicycle_parking": "wall_loops",
        "capacity": "4",
        "covered": "yes"
      },
      "geometry": {
        "type": "Point",
        "coordinates": [
          -72.6692401,
          46.2942692
        ]
      },
      "id": "node/10764638483"
    },
    {
      "type": "Feature",
      "properties": {
        "@id": "node/10764687605",
        "amenity": "bicycle_parking",
        "bicycle_parking": "wall_loops",
        "capacity": "12",
        "covered": "no"
      },
      "geometry": {
        "type": "Point",
        "coordinates": [
          -72.6850887,
          46.2870374
        ]
      },
      "id": "node/10764687605"
    },
    {
      "type": "Feature",
      "properties": {
        "@id": "node/12326994600",
        "access": "yes",
        "amenity": "bicycle_parking",
        "bicycle_parking": "wall_loops",
        "capacity": "4",
        "capacity:cargo_bike": "0",
        "covered": "no",
        "fee": "no",
        "lit": "no",
        "smoothness": "intermediate",
        "supervised": "no",
        "surface": "gravel"
      },
      "geometry": {
        "type": "Point",
        "coordinates": [
          -72.6897421,
          46.287927
        ]
      },
      "id": "node/12326994600"
    },
    {
      "type": "Feature",
      "properties": {
        "@id": "node/12327422580",
        "access": "yes",
        "amenity": "bicycle_parking",
        "bicycle_parking": "stands",
        "capacity": "12",
        "capacity:cargo_bike": "7",
        "covered": "no",
        "fee": "no",
        "lit": "yes",
        "smoothness": "excellent",
        "supervised": "no",
        "surface": "paving_stones"
      },
      "geometry": {
        "type": "Point",
        "coordinates": [
          -72.5323468,
          46.3482964
        ]
      },
      "id": "node/12327422580"
    },
    {
      "type": "Feature",
      "properties": {
        "@id": "node/12331169170",
        "access": "yes",
        "amenity": "bicycle_parking",
        "bicycle_parking": "anchors",
        "capacity": "4",
        "capacity:cargo_bike": "0",
        "covered": "no",
        "fee": "no",
        "lit": "yes",
        "operator": "Municipalité de Trois-Rivières",
        "smoothness": "excellent",
        "supervised": "no",
        "surface": "paving_stones"
      },
      "geometry": {
        "type": "Point",
        "coordinates": [
          -72.5430421,
          46.3428912
        ]
      },
      "id": "node/12331169170"
    },
    {
      "type": "Feature",
      "properties": {
        "@id": "node/12345084048",
        "access": "yes",
        "amenity": "bicycle_parking",
        "bicycle_parking": "rack",
        "capacity": "3",
        "covered": "no",
        "fee": "no",
        "lit": "no",
        "operator": "Banque nationale du Canada",
        "smoothness": "good",
        "supervised": "no"
      },
      "geometry": {
        "type": "Point",
        "coordinates": [
          -72.592011,
          46.3341096
        ]
      },
      "id": "node/12345084048"
    },
    {
      "type": "Feature",
      "properties": {
        "@id": "node/12348747105",
        "access": "yes",
        "amenity": "bicycle_parking",
        "bicycle_parking": "rack",
        "capacity": "5",
        "covered": "no",
        "fee": "no",
        "lit": "yes",
        "operator": "Fromagerie Victoria",
        "smoothness": "excellent",
        "supervised": "no",
        "surface": "concrete"
      },
      "geometry": {
        "type": "Point",
        "coordinates": [
          -72.5629188,
          46.3261192
        ]
      },
      "id": "node/12348747105"
    },
    {
      "type": "Feature",
      "properties": {
        "@id": "node/12348747106",
        "access": "yes",
        "amenity": "bicycle_parking",
        "bicycle_parking": "wall_loops",
        "capacity": "8",
        "capacity:cargo_bike": "0",
        "covered": "no",
        "fee": "no",
        "lit": "no",
        "operator": "Le Panetier",
        "smoothness": "excellent",
        "supervised": "no",
        "surface": "asphalt"
      },
      "geometry": {
        "type": "Point",
        "coordinates": [
          -72.5633617,
          46.3264418
        ]
      },
      "id": "node/12348747106"
    },
    {
      "type": "Feature",
      "properties": {
        "@id": "node/12386964755",
        "access": "yes",
        "amenity": "bicycle_parking",
        "bicycle_parking": "stands",
        "capacity": "4",
        "capacity:cargo_bike": "0",
        "covered": "no",
        "lit": "no",
        "operator": "Centre de services scolaire du Chemin-du-Roy",
        "smoothness": "excellent",
        "supervised": "no",
        "surface": "asphalt"
      },
      "geometry": {
        "type": "Point",
        "coordinates": [
          -72.6815524,
          46.2875317
        ]
      },
      "id": "node/12386964755"
    },
    {
      "type": "Feature",
      "properties": {
        "@id": "node/12421769786",
        "amenity": "bicycle_parking"
      },
      "geometry": {
        "type": "Point",
        "coordinates": [
          -72.5699155,
          46.3314186
        ]
      },
      "id": "node/12421769786"
    }
  ]
}